IRIDIUM 159             
1 43578U 18061K   25232.92252894  .00000066  00000+0  16443-4 0  9991
2 43578  86.4027 182.1737 0002345  80.0121 280.1340 14.34217998370344
IRIDIUM 180             
1 43922U 19002A   25232.78248751  .00000008  00000+0 -41364-5 0  9999
2 43922  86.3971 119.2070 0001928  83.5095 276.6321 14.34217593345936
IRIDIUM 176             
1 43923U 19002B   25232.94563283  .00000686  00000+0  10496-3 0  9999
2 43923  86.6096 119.1260 0001941 101.2106 258.9329 14.72257163355070
IRIDIUM 168             
1 43924U 19002C   25232.77614516  .00000052  00000+0  11339-4 0  9992
2 43924  86.3974 119.2789 0002132  84.9155 275.2284 14.34217794345912
IRIDIUM 173             
1 43925U 19002D   25232.76345985  .00000026  00000+0  20891-5 0  9998
2 43925  86.3969 119.1854 0001935  85.8775 274.2642 14.34217546345896
IRIDIUM 169             
1 43926U 19002E   25232.84086846  .00000264  00000+0  79636-4 0  9990
2 43926  86.4285 150.7543 0001498 120.4410 239.6937 14.38610170347046
IRIDIUM 172             
1 43927U 19002F   25232.75711407  .00000204  00000+0  65917-4 0  9990
2 43927  86.3970 119.1949 0002094  77.4101 282.7329 14.34218902345907
IRIDIUM 175             
1 43928U 19002G   25232.80477332  .00000277  00000+0  39981-4 0  9995
2 43928  86.1451  68.0018 0002912 102.7341 257.4201 14.72243843355044
